{
"type": "FeatureCollection",
"name": "stations",
"crs": { "type": "name", "properties": { "name": "urn:ogc:def:crs:OGC:1.3:CRS84" } },
"features": [
{"type":"Feature","properties":{"stationReference":"685513","name":"Davis Road (685513)","riverName":"River Birket","town":"Moreton","catchmentName":"Lower Mersey","unit":"m","type":"Stage","easting":327725,"northing":391118,"latest_level":1.143,"level_vs_median":0.33,"dateTime":"2026-10-03T16:00:00Z"},"geometry":{"type":"Point","coordinates":[-3.088784004865976,53.411918135071417]}},
{"type":"Feature","properties":{"stationReference":"685505","name":"Greasby Road (685505)","riverName":"Arrowe Brook","town":"Upton (Wirral)","catchmentName":"Lower Mersey","unit":"m","type":"Stage","easting":326388,"northing":387928,"latest_level":0.203,"level_vs_median":0.0,"dateTime":"2026-10-03T16:00:00Z"},"geometry":{"type":"Point","coordinates":[-3.10814945385286,53.383064087262042]}},
{"type":"Feature","properties":{"stationReference":"694744","name":"Kirkby (694744)","riverName":"River Alt","town":"Aintree","catchmentName":"Lower Mersey","unit":"m","type":"Stage","easting":339160,"northing":398330,"latest_level":0.252,"level_vs_median":0.028,"dateTime":"2026-10-03T16:00:00Z"},"geometry":{"type":"Point","coordinates":[-2.918177791313771,53.478177815589106]}},
{"type":"Feature","properties":{"stationReference":"685517","name":"Acton Lane (685517)","riverName":"Arrowe Brook","town":"Upton (Wirral)","catchmentName":"Lower Mersey","unit":"m","type":"Stage","easting":325506,"northing":389346,"latest_level":0.146,"level_vs_median":0.02,"dateTime":"2026-10-03T16:00:00Z"},"geometry":{"type":"Point","coordinates":[-3.121741271276594,53.395684092299987]}},
{"type":"Feature","properties":{"stationReference":"E70139","name":"Liverpool (E70139)","riverName":null,"town":null,"catchmentName":null,"unit":"mAOD","type":"Tidal Level","easting":332480,"northing":395252,"latest_level":2.952,"level_vs_median":2.3895,"dateTime":"2026-10-03T15:30:00Z"},"geometry":{"type":"Point","coordinates":[-3.018150035960302,53.449700403652848]}},
{"type":"Feature","properties":{"stationReference":"E70124","name":"Liverpool (E70124)","riverName":null,"town":null,"catchmentName":null,"unit":"m","type":"Tidal Level","easting":332480,"northing":395252,"latest_level":7.817,"level_vs_median":2.3245,"dateTime":"2026-10-03T15:00:00Z"},"geometry":{"type":"Point","coordinates":[-3.018150035960302,53.449700403652848]}},
{"type":"Feature","properties":{"stationReference":"685519","name":"Great Culvert Entrance (685519)","riverName":null,"town":null,"catchmentName":null,"unit":"m","type":"Stage","easting":329685,"northing":390505,"latest_level":0.79,"level_vs_median":0.066,"dateTime":"2026-10-03T16:15:00Z"},"geometry":{"type":"Point","coordinates":[-3.059166676516189,53.406674193233719]}},
{"type":"Feature","properties":{"stationReference":"682500","name":"Frodsham PS (682500)","riverName":null,"town":null,"catchmentName":null,"unit":"m","type":"Stage","easting":332850,"northing":389450,"latest_level":3.139,"level_vs_median":-0.1035,"dateTime":"2026-10-03T16:15:00Z"},"geometry":{"type":"Point","coordinates":[-3.011342045268116,53.397605393722991]}},
{"type":"Feature","properties":{"stationReference":"685502","name":"Thingwall Road (685502)","riverName":null,"town":null,"catchmentName":null,"unit":"m","type":"Stage","easting":326384,"northing":384824,"latest_level":0.043,"level_vs_median":0.008,"dateTime":"2026-10-03T16:15:00Z"},"geometry":{"type":"Point","coordinates":[-3.107486292523109,53.355167353477157]}}
]
}
